QZS-1R                  
1 49336U 21096A   24084.89849300 -.00000218  00000+0  00000+0 0  9992
2 49336  35.7699  91.8033 0750436 269.8158 278.7546  1.00288912  8833
